[
    {
        "OBJECT_NAME": "DMSP 5D-3 F16 (USA 172)",
        "OBJECT_ID": "2003-048A",
        "EPOCH": "2026-06-08T04:17:08.060064",
        "MEAN_MOTION": 14.14482417,
        "ECCENTRICITY": 0.0007308,
        "INCLINATION": 98.9892,
        "RA_OF_ASC_NODE": 182.9471,
        "ARG_OF_PERICENTER": 163.8776,
        "MEAN_ANOMALY": 244.5369,
        "EPHEMERIS_TYPE": 0,
        "CLASSIFICATION_TYPE": "U",
        "NORAD_CAT_ID": 28054,
        "ELEMENT_SET_NO": 999,
        "REV_AT_EPOCH": 16821,
        "BSTAR": 3.935e-5,
        "MEAN_MOTION_DOT": 3.0e-7,
        "MEAN_MOTION_DDOT": 0
    },
    {
        "OBJECT_NAME": "METEOSAT-9 (MSG-2)",
        "OBJECT_ID": "2005-049B",
        "EPOCH": "2026-06-07T23:23:21.475104",
        "MEAN_MOTION": 1.00268603,
        "ECCENTRICITY": 0.0001749,
        "INCLINATION": 9.3397,
        "RA_OF_ASC_NODE": 54.2567,
        "ARG_OF_PERICENTER": 351.8629,
        "MEAN_ANOMALY": 246.7838,
        "EPHEMERIS_TYPE": 0,
        "CLASSIFICATION_TYPE": "U",
        "NORAD_CAT_ID": 28912,
        "ELEMENT_SET_NO": 999,
        "REV_AT_EPOCH": 690,
        "BSTAR": 0,
        "MEAN_MOTION_DOT": 1.37e-6,
        "MEAN_MOTION_DDOT": 0
    },
    {
        "OBJECT_NAME": "DMSP 5D-3 F17 (USA 191)",
        "OBJECT_ID": "2006-050A",
        "EPOCH": "2026-06-08T04:32:40.304832",
        "MEAN_MOTION": 14.14991901,
        "ECCENTRICITY": 0.0011324,
        "INCLINATION": 98.7377,
        "RA_OF_ASC_NODE": 165.9435,
        "ARG_OF_PERICENTER": 82.4895,
        "MEAN_ANOMALY": 277.7565,
        "EPHEMERIS_TYPE": 0,
        "CLASSIFICATION_TYPE": "U",
        "NORAD_CAT_ID": 29522,
        "ELEMENT_SET_NO": 999,
        "REV_AT_EPOCH": 1115,
        "BSTAR": 5.5433e-5,
        "MEAN_MOTION_DOT": 6.4e-7,
        "MEAN_MOTION_DDOT": 0
    },
    {
        "OBJECT_NAME": "FENGYUN 3A",
        "OBJECT_ID": "2008-026A",
        "EPOCH": "2026-06-08T02:18:06.535008",
        "MEAN_MOTION": 14.19569313,
        "ECCENTRICITY": 0.0009205,
        "INCLINATION": 98.6881,
        "RA_OF_ASC_NODE": 100.0993,
        "ARG_OF_PERICENTER": 147.7099,
        "MEAN_ANOMALY": 212.4642,
        "EPHEMERIS_TYPE": 0,
        "CLASSIFICATION_TYPE": "U",
        "NORAD_CAT_ID": 32958,
        "ELEMENT_SET_NO": 999,
        "REV_AT_EPOCH": 93411,
        "BSTAR": 6.135e-5,
        "MEAN_MOTION_DOT": 8.6e-7,
        "MEAN_MOTION_DDOT": 0
    },
    {
        "OBJECT_NAME": "GOES 14",
        "OBJECT_ID": "2009-033A",
        "EPOCH": "2026-06-07T15:09:03.163104",
        "MEAN_MOTION": 1.00114378,
        "ECCENTRICITY": 0.0001995,
        "INCLINATION": 1.6645,
        "RA_OF_ASC_NODE": 83.1599,
        "ARG_OF_PERICENTER": 3.5143,
        "MEAN_ANOMALY": 183.9218,
        "EPHEMERIS_TYPE": 0,
        "CLASSIFICATION_TYPE": "U",
        "NORAD_CAT_ID": 35491,
        "ELEMENT_SET_NO": 999,
        "REV_AT_EPOCH": 649,
        "BSTAR": 0,
        "MEAN_MOTION_DOT": -2.37e-6,
        "MEAN_MOTION_DDOT": 0
    },
    {
        "OBJECT_NAME": "DMSP 5D-3 F18 (USA 210)",
        "OBJECT_ID": "2009-057A",
        "EPOCH": "2026-06-08T03:50:35.353824",
        "MEAN_MOTION": 14.14891708,
        "ECCENTRICITY": 0.0009878,
        "INCLINATION": 98.9034,
        "RA_OF_ASC_NODE": 139.9491,
        "ARG_OF_PERICENTER": 278.3486,
        "MEAN_ANOMALY": 81.6567,
        "EPHEMERIS_TYPE": 0,
        "CLASSIFICATION_TYPE": "U",
        "NORAD_CAT_ID": 35951,
        "ELEMENT_SET_NO": 999,
        "REV_AT_EPOCH": 85831,
        "BSTAR": 0.00015085,
        "MEAN_MOTION_DOT": 2.47e-6,
        "MEAN_MOTION_DDOT": 0
    },
    {
        "OBJECT_NAME": "EWS-G2 (GOES 15)",
        "OBJECT_ID": "2010-008A",
        "EPOCH": "2026-06-08T03:33:38.729088",
        "MEAN_MOTION": 1.00275825,
        "ECCENTRICITY": 0.0005488,
        "INCLINATION": 1.252,
        "RA_OF_ASC_NODE": 83.0108,
        "ARG_OF_PERICENTER": 37.9746,
        "MEAN_ANOMALY": 252.5669,
        "EPHEMERIS_TYPE": 0,
        "CLASSIFICATION_TYPE": "U",
        "NORAD_CAT_ID": 36411,
        "ELEMENT_SET_NO": 999,
        "REV_AT_EPOCH": 5954,
        "BSTAR": 0,
        "MEAN_MOTION_DOT": 3.4e-7,
        "MEAN_MOTION_DDOT": 0
    },
    {
        "OBJECT_NAME": "COMS 1",
        "OBJECT_ID": "2010-032A",
        "EPOCH": "2026-06-03T23:47:39.107040",
        "MEAN_MOTION": 1.00270643,
        "ECCENTRICITY": 0.0001016,
        "INCLINATION": 4.775,
        "RA_OF_ASC_NODE": 75.5286,
        "ARG_OF_PERICENTER": 4.5847,
        "MEAN_ANOMALY": 297.3769,
        "EPHEMERIS_TYPE": 0,
        "CLASSIFICATION_TYPE": "U",
        "NORAD_CAT_ID": 36744,
        "ELEMENT_SET_NO": 999,
        "REV_AT_EPOCH": 5095,
        "BSTAR": 0,
        "MEAN_MOTION_DOT": -3.34e-6,
        "MEAN_MOTION_DDOT": 0
    },
    {
        "OBJECT_NAME": "FENGYUN 3B",
        "OBJECT_ID": "2010-059A",
        "EPOCH": "2026-06-08T04:28:46.041600",
        "MEAN_MOTION": 14.14840711,
        "ECCENTRICITY": 0.0021443,
        "INCLINATION": 98.9621,
        "RA_OF_ASC_NODE": 205.1627,
        "ARG_OF_PERICENTER": 210.0429,
        "MEAN_ANOMALY": 239.4804,
        "EPHEMERIS_TYPE": 0,
        "CLASSIFICATION_TYPE": "U",
        "NORAD_CAT_ID": 37214,
        "ELEMENT_SET_NO": 999,
        "REV_AT_EPOCH": 80615,
        "BSTAR": 0.00016682,
        "MEAN_MOTION_DOT": 2.77e-6,
        "MEAN_MOTION_DDOT": 0
    },
    {
        "OBJECT_NAME": "SUOMI NPP",
        "OBJECT_ID": "2011-061A",
        "EPOCH": "2026-06-08T02:33:53.007264",
        "MEAN_MOTION": 14.19515567,
        "ECCENTRICITY": 0.0002025,
        "INCLINATION": 98.7952,
        "RA_OF_ASC_NODE": 100.0451,
        "ARG_OF_PERICENTER": 26.7312,
        "MEAN_ANOMALY": 333.3968,
        "EPHEMERIS_TYPE": 0,
        "CLASSIFICATION_TYPE": "U",
        "NORAD_CAT_ID": 37849,
        "ELEMENT_SET_NO": 999,
        "REV_AT_EPOCH": 75715,
        "BSTAR": 5.77e-5,
        "MEAN_MOTION_DOT": 7.7e-7,
        "MEAN_MOTION_DDOT": 0
    },
    {
        "OBJECT_NAME": "METEOSAT-10 (MSG-3)",
        "OBJECT_ID": "2012-035B",
        "EPOCH": "2026-06-08T01:24:15.657120",
        "MEAN_MOTION": 1.00275787,
        "ECCENTRICITY": 0.0001633,
        "INCLINATION": 4.6491,
        "RA_OF_ASC_NODE": 61.0583,
        "ARG_OF_PERICENTER": 335.2386,
        "MEAN_ANOMALY": 241.4327,
        "EPHEMERIS_TYPE": 0,
        "CLASSIFICATION_TYPE": "U",
        "NORAD_CAT_ID": 38552,
        "ELEMENT_SET_NO": 999,
        "REV_AT_EPOCH": 5076,
        "BSTAR": 0,
        "MEAN_MOTION_DOT": 1.0e-7,
        "MEAN_MOTION_DDOT": 0
    },
    {
        "OBJECT_NAME": "METOP-B",
        "OBJECT_ID": "2012-049A",
        "EPOCH": "2026-06-08T04:18:31.260672",
        "MEAN_MOTION": 14.21430293,
        "ECCENTRICITY": 0.0002754,
        "INCLINATION": 98.6507,
        "RA_OF_ASC_NODE": 210.8581,
        "ARG_OF_PERICENTER": 40.5698,
        "MEAN_ANOMALY": 319.5684,
        "EPHEMERIS_TYPE": 0,
        "CLASSIFICATION_TYPE": "U",
        "NORAD_CAT_ID": 38771,
        "ELEMENT_SET_NO": 999,
        "REV_AT_EPOCH": 71198,
        "BSTAR": 6.3772e-5,
        "MEAN_MOTION_DOT": 9.6e-7,
        "MEAN_MOTION_DDOT": 0
    }
]