DMSP 5D-3 F16 (USA 172) 
1 28054U 03048A   26159.17856551  .00000030  00000+0  39350-4 0  9991
2 28054  98.9892 182.9471 0007308 163.8776 244.5369 14.14482417168211
METEOSAT-9 (MSG-2)      
1 28912U 05049B   26158.97455411  .00000137  00000+0  00000+0 0  9997
2 28912   9.3397  54.2567 0001749 351.8629 246.7838  1.00268603  6908
DMSP 5D-3 F17 (USA 191) 
1 29522U 06050A   26159.18935538  .00000064  00000+0  55433-4 0  9999
2 29522  98.7377 165.9435 0011324  82.4895 277.7565 14.14991901 11159
FENGYUN 3A              
1 32958U 08026A   26159.09590897  .00000086  00000+0  61350-4 0  9995
2 32958  98.6881 100.0993 0009205 147.7099 212.4642 14.19569313934115
GOES 14                 
1 35491U 09033A   26158.63128661 -.00000237  00000+0  00000+0 0  9993
2 35491   1.6645  83.1599 0001995   3.5143 183.9218  1.00114378  6497
DMSP 5D-3 F18 (USA 210) 
1 35951U 09057A   26159.16013141  .00000247  00000+0  15085-3 0  9998
2 35951  98.9034 139.9491 0009878 278.3486  81.6567 14.14891708858315
EWS-G2 (GOES 15)        
1 36411U 10008A   26159.14836492  .00000034  00000+0  00000+0 0  9999
2 36411   1.2520  83.0108 0005488  37.9746 252.5669  1.00275825 59546
COMS 1                  
1 36744U 10032A   26154.99142485 -.00000334  00000+0  00000+0 0  9999
2 36744   4.7750  75.5286 0001016   4.5847 297.3769  1.00270643 50953
FENGYUN 3B              
1 37214U 10059A   26159.18664400  .00000277  00000+0  16682-3 0  9995
2 37214  98.9621 205.1627 0021443 210.0429 239.4804 14.14840711806150
SUOMI NPP               
1 37849U 11061A   26159.10686351  .00000077  00000+0  57700-4 0  9999
2 37849  98.7952 100.0451 0002025  26.7312 333.3968 14.19515567757158
METEOSAT-10 (MSG-3)     
1 38552U 12035B   26159.05851455  .00000010  00000+0  00000+0 0  9999
2 38552   4.6491  61.0583 0001633 335.2386 241.4327  1.00275787 50763
METOP-B                 
1 38771U 12049A   26159.17952848  .00000096  00000+0  63772-4 0  9992
2 38771  98.6507 210.8581 0002754  40.5698 319.5684 14.21430293711989
